OBJECT_NAME,OBJECT_ID,EPOCH,MEAN_MOTION,ECCENTRICITY,INCLINATION,RA_OF_ASC_NODE,ARG_OF_PERICENTER,MEAN_ANOMALY,EPHEMERIS_TYPE,CLASSIFICATION_TYPE,NORAD_CAT_ID,ELEMENT_SET_NO,REV_AT_EPOCH,BSTAR,MEAN_MOTION_DOT,MEAN_MOTION_DDOT
COSMOS 2507 (RODNIK-S 13),2015-050A,2026-05-19T23:29:17.817216,12.42925671,.00111074,82.4905,97.2319,54.1066,306.1043,0,U,40920,999,48335,-.16665695E-3,-.13E-6,0
COSMOS 2508 (RODNIK-S 14),2015-050B,2026-05-19T22:24:06.778656,12.42913052,.00155494,82.4858,95.7758,84.2425,276.0427,0,U,40921,999,48333,.10495405E-3,.25E-6,0
COSMOS 2509 (RODNIK-S 15),2015-050C,2026-05-19T22:52:23.379168,12.42882556,.00157507,82.4867,95.8630,100.1639,260.1218,0,U,40922,999,48337,-.20634408E-3,-.19E-6,0
LINGQIAO VIDEO A,2015-057B,2026-05-19T23:35:38.658912,14.77348219,.00170459,97.6617,136.1785,6.8787,353.2655,0,U,40959,999,57124,.4103753E-4,.244E-5,0
LINGQIAO VIDEO B,2015-057C,2026-05-19T23:04:58.149696,14.77455064,.00171648,97.6583,137.3295,6.9879,353.1568,0,U,40960,999,57128,.12833179E-3,.868E-5,0
JILIN-1,2015-057D,2026-05-19T23:42:30.421440,14.78107300,.00169415,97.6509,140.7565,0.9969,359.1274,0,U,40961,999,57144,.73637924E-4,.485E-5,0
FOX-1A (AO-85),2015-058D,2026-05-19T21:52:16.435776,14.90787273,.01292495,64.7763,6.8455,67.6906,293.7849,0,U,40967,999,10935,.1989722E-3,.2122E-4,0
SINOD-D 1,2015-058E,2026-05-19T22:20:33.638496,14.95666306,.01177624,64.7759,347.3851,64.4287,296.8944,0,U,40968,999,11243,.2448341E-3,.2957E-4,0
ELEKTRO-L 2,2015-074A,2026-05-19T15:54:56.833920,1.00271640,.00015188,6.6231,70.8620,255.3021,135.4013,0,U,41105,999,3822,0,-.121E-5,0
DAMPE,2015-078A,2026-05-19T23:51:24.540192,15.30706730,.00121247,97.4560,145.3242,167.6125,192.5417,0,U,41173,999,58023,.37918247E-4,.1049E-4,0
ORBCOMM FM114,2015-081A,2026-05-19T16:38:02.982912,14.58821547,.00014212,47.0032,136.7169,45.6996,314.4006,0,U,41179,999,55359,.60436423E-4,.114E-5,0
ORBCOMM FM110,2015-081D,2026-05-19T16:21:45.468864,14.58829391,.0003975,47.0003,136.2190,297.9731,62.0752,0,U,41182,999,55346,.11842179E-3,.388E-5,0
ORBCOMM FM112,2015-081F,2026-05-19T10:43:55.360992,14.58855174,.00024674,47.0003,46.1438,65.7549,294.3594,0,U,41184,999,55475,.1039017E-3,.32E-5,0
ORBCOMM FM113,2015-081G,2026-05-19T18:22:14.546496,14.58822683,.00010477,47.0018,45.0023,58.2960,301.8027,0,U,41185,999,55478,.75321651E-4,.185E-5,0
ORBCOMM FM108,2015-081J,2026-05-19T10:53:51.479520,14.58825438,.00019639,47.0058,318.0423,66.4195,293.6897,0,U,41187,999,55588,.10468685E-3,.323E-5,0
ORBCOMM FM117,2015-081K,2026-05-19T18:17:13.816608,14.58823386,.0002418,47.0019,315.2289,76.7138,283.4017,0,U,41188,999,55597,.98530505E-4,.294E-5,0
ORBCOMM FM116,2015-081L,2026-05-19T11:14:53.877696,14.58832891,.00022004,47.0033,46.4034,296.1977,63.8682,0,U,41189,999,55474,.10276015E-3,.314E-5,0
HORYU-4,2016-012D,2026-05-19T18:10:27.770304,15.79898686,.00043884,30.9888,285.0471,82.5122,277.6034,0,U,41340,999,56629,.85393791E-3,.168359E-2,0
ZIYUAN 3-02 (ZY 3-02),2016-033A,2026-05-19T23:20:38.033088,15.21499537,.00132295,97.3836,216.2879,40.4705,319.7513,0,U,41556,999,55369,.17431607E-3,.3861E-4,0
CARTOSAT-2C,2016-040A,2026-05-20T00:03:49.595904,15.19236115,.000862,97.4494,200.3639,225.6046,134.4484,0,U,41599,999,54943,.87799924E-4,.1782E-4,0
LAPAN-A3,2016-040E,2026-05-19T23:49:49.284192,15.32909033,.00121566,97.1489,137.0708,112.8803,247.3725,0,U,41603,999,55049,.72990852E-4,.225E-4,0
GAOFEN-3,2016-049A,2026-05-19T23:39:36.181152,14.42211259,.00009616,98.4014,148.1974,88.0568,272.0732,0,U,41727,999,51458,.20921015E-4,.26E-6,0
CAS-2T & KS-1Q,2016-066G,2026-05-19T11:54:16.218720,14.44599488,.03413836,98.3827,215.5577,216.4556,141.2953,0,U,41847,999,50065,.10371392E-3,.67E-5,0
YUNHAI-1 01,2016-068A,2026-05-19T22:50:26.028960,14.32717617,.00065439,98.5836,151.2211,111.7609,248.4272,0,U,41857,999,49778,.84259752E-4,.185E-5,0
RESOURCESAT-2A,2016-074A,2026-05-19T22:01:42.189024,14.21605325,.00028547,98.7529,213.6514,137.5373,222.6026,0,U,41877,999,49028,-.3940165E-4,-.131E-5,0
