COSMOS 2507 (RODNIK-S *)
1 40920U 15050A   26139.97867844 -.00000013  00000+0 -16666-3 0  9993
2 40920  82.4905  97.2319 0011107  54.1066 306.1043 12.42925671483357
COSMOS 2508 (RODNIK-S *)
1 40921U 15050B   26139.93341179  .00000025  00000+0  10495-3 0  9993
2 40921  82.4858  95.7758 0015549  84.2425 276.0427 12.42913052483331
COSMOS 2509 (RODNIK-S *)
1 40922U 15050C   26139.95304837 -.00000019  00000+0 -20634-3 0  9997
2 40922  82.4867  95.8630 0015750 100.1639 260.1218 12.42882556483371
LINGQIAO VIDEO A        
1 40959U 15057B   26139.98308633  .00000244  00000+0  41038-4 0  9995
2 40959  97.6617 136.1785 0017045   6.8787 353.2655 14.77348219571243
LINGQIAO VIDEO B        
1 40960U 15057C   26139.96178414  .00000868  00000+0  12833-3 0  9999
2 40960  97.6583 137.3295 0017164   6.9879 353.1568 14.77455064571284
JILIN-1                 
1 40961U 15057D   26139.98785210  .00000485  00000+0  73638-4 0  9996
2 40961  97.6509 140.7565 0016941   0.9969 359.1274 14.78107300571443
FOX-1A (AO-85)          
1 40967U 15058D   26139.91130134  .00002122  00000+0  19897-3 0  9991
2 40967  64.7763   6.8455 0129249  67.6906 293.7849 14.90787273109358
SINOD-D 1               
1 40968U 15058E   26139.93094489  .00002957  00000+0  24483-3 0  9999
2 40968  64.7759 347.3851 0117762  64.4287 296.8944 14.95666306112432
ELEKTRO-L 2             
1 41105U 15074A   26139.66315780 -.00000121  00000+0  00000+0 0  9998
2 41105   6.6231  70.8620 0001518 255.3021 135.4013  1.00271640 38220
DAMPE                   
1 41173U 15078A   26139.99403403  .00001049  00000+0  37918-4 0  9995
2 41173  97.4560 145.3242 0012124 167.6125 192.5417 15.30706730580237
ORBCOMM FM114           
1 41179U 15081A   26139.69309008  .00000114  00000+0  60436-4 0  9991
2 41179  47.0032 136.7169 0001421  45.6996 314.4006 14.58821547553590
ORBCOMM FM110           
1 41182U 15081D   26139.68177626  .00000388  00000+0  11842-3 0  9992
2 41182  47.0003 136.2190 0003975 297.9731  62.0752 14.58829391553461
ORBCOMM FM112           
1 41184U 15081F   26139.44716853  .00000320  00000+0  10390-3 0  9992
2 41184  47.0003  46.1438 0002467  65.7549 294.3594 14.58855174554755
ORBCOMM FM113           
1 41185U 15081G   26139.76544614  .00000185  00000+0  75322-4 0  9998
2 41185  47.0018  45.0023 0001047  58.2960 301.8027 14.58822683554784
ORBCOMM FM108           
1 41187U 15081J   26139.45406805  .00000323  00000+0  10469-3 0  9999
2 41187  47.0058 318.0423 0001963  66.4195 293.6897 14.58825438555881
ORBCOMM FM117           
1 41188U 15081K   26139.76196547  .00000294  00000+0  98531-4 0  9997
2 41188  47.0019 315.2289 0002418  76.7138 283.4017 14.58823386555976
ORBCOMM FM116           
1 41189U 15081L   26139.46867914  .00000314  00000+0  10276-3 0  9990
2 41189  47.0033  46.4034 0002200 296.1977  63.8682 14.58832891554745
HORYU-4                 
1 41340U 16012D   26139.75726586  .00168359  00000+0  85394-3 0  9992
2 41340  30.9888 285.0471 0004388  82.5122 277.6034 15.79898686566294
ZIYUAN 3-02 (ZY 3-02)   
1 41556U 16033A   26139.97266242  .00003861  00000+0  17432-3 0  9990
2 41556  97.3836 216.2879 0013229  40.4705 319.7513 15.21499537553694
CARTOSAT-2C             
1 41599U 16040A   26140.00265736  .00001782  00000+0  87800-4 0  9995
2 41599  97.4494 200.3639 0008620 225.6046 134.4484 15.19236115549438
LAPAN-A3                
1 41603U 16040E   26139.99293153  .00002250  00000+0  72991-4 0  9997
2 41603  97.1489 137.0708 0012156 112.8803 247.3725 15.32909033550496
GAOFEN-3                
1 41727U 16049A   26139.98583543  .00000026  00000+0  20921-4 0  9992
2 41727  98.4014 148.1974 0000961  88.0568 272.0732 14.42211259514581
CAS-2T & KS-1Q          
1 41847U 16066G   26139.49602105  .00000670  00000+0  10371-3 0  9998
2 41847  98.3827 215.5577 0341383 216.4556 141.2953 14.44599488500653
YUNHAI-1 01             
1 41857U 16068A   26139.95169015  .00000185  00000+0  84260-4 0  9990
2 41857  98.5836 151.2211 0006543 111.7609 248.4272 14.32717617497785
RESOURCESAT-2A          
1 41877U 16074A   26139.91784941 -.00000131  00000+0 -39402-4 0  9997
2 41877  98.7529 213.6514 0002854 137.5373 222.6026 14.21605325490281
